H1 CPF  1  DGF 2022 01 25 08  5251 larets     NONE      
H2   304206 5557    27944 2022 01 23 00 00 00 2022 01 30 00 00 00    30 1 1  0 0 0
H5  0.0650
H9
10 0 59607  36000.000000  0       1536292.680       4294001.007       5390710.176
10 0 59607  36030.000000  0       1648605.143       4429738.790       5246415.935
10 0 59607  36060.000000  0       1759833.083       4560506.716       5096775.634
10 0 59607  36090.000000  0       1869841.978       4686177.578       4941941.776
10 0 59607  36120.000000  0       1978497.995       4806629.912       4782072.147
10 0 59607  36150.000000  0       2085668.148       4921748.112       4617329.661
10 0 59607  36180.000000  0       2191220.463       5031422.545       4447882.197
10 0 59607  36210.000000  0       2295024.140       5135549.658       4273902.430
10 0 59607  36240.000000  0       2396949.709       5234032.080       4095567.662
10 0 59607  36270.000000  0       2496869.192       5326778.719       3913059.640
10 0 59607  36300.000000  0       2594656.264       5413704.851       3726564.383
10 0 59607  36330.000000  0       2690186.407       5494732.215       3536271.989
10 0 59607  36360.000000  0       2783337.077       5569789.083       3342376.435
10 0 59607  36390.000000  0       2873987.850       5638810.331       3145075.378
10 0 59607  36420.000000  0       2962020.580       5701737.497       2944569.946
10 0 59607  36450.000000  0       3047319.552       5758518.828       2741064.534
10 0 59607  36480.000000  0       3129771.627       5809109.321       2534766.585
10 0 59607  36510.000000  0       3209266.386       5853470.755       2325886.383
10 0 59607  36540.000000  0       3285696.274       5891571.722       2114636.836
10 0 59607  36570.000000  0       3358956.740       5923387.645       1901233.256
10 0 59607  36600.000000  0       3428946.371       5948900.792       1685893.137
10 0 59607  36630.000000  0       3495567.028       5968100.284       1468835.930
10 0 59607  36660.000000  0       3558723.973       5980982.087       1250282.814
10 0 59607  36690.000000  0       3618325.997       5987549.006       1030456.468
10 0 59607  36720.000000  0       3674285.545       5987810.665        809580.838
10 0 59607  36750.000000  0       3726518.836       5981783.476        587880.904
10 0 59607  36780.000000  0       3774945.975       5969490.605        365582.446
10 0 59607  36810.000000  0       3819491.069       5950961.930        142911.810
10 0 59607  36840.000000  0       3860082.322       5926233.985        -79904.327
10 0 59607  36870.000000  0       3896652.143       5895349.905       -302639.188
10 0 59607  36900.000000  0       3929137.240       5858359.361       -525066.136
10 0 59607  36930.000000  0       3957478.708       5815318.487       -746958.901
10 0 59607  36960.000000  0       3981622.120       5766289.804       -968091.816
10 0 59607  36990.000000  0       4001517.609       5711342.128      -1188240.055
10 0 59607  37020.000000  0       4017119.939       5650550.481      -1407179.859
10 0 59607  37050.000000  0       4028388.582       5583995.983      -1624688.773
10 0 59607  37080.000000  0       4035287.775       5511765.748      -1840545.871
10 0 59607  37110.000000  0       4037786.582       5433952.767      -2054531.979
10 0 59607  37140.000000  0       4035858.949       5350655.793      -2266429.908
10 0 59607  37170.000000  0       4029483.749       5261979.205      -2476024.668
10 0 59607  37200.000000  0       4018644.820       5168032.884      -2683103.694
10 0 59607  37230.000000  0       4003331.010       5068932.064      -2887457.057
10 0 59607  37260.000000  0       3983536.195       4964797.195      -3088877.680
10 0 59607  37290.000000  0       3959259.310       4855753.788      -3287161.542
10 0 59607  37320.000000  0       3930504.363       4741932.261      -3482107.887
10 0 59607  37350.000000  0       3897280.447       4623467.780      -3673519.418
10 0 59607  37380.000000  0       3859601.750       4500500.094      -3861202.494
10 0 59607  37410.000000  0       3817487.552       4373173.375      -4044967.327
10 0 59607  37440.000000  0       3770962.227       4241636.036      -4224628.161
10 0 59607  37470.000000  0       3720055.227       4106040.565      -4400003.467
10 0 59607  37500.000000  0       3664801.067       3966543.337      -4570916.116
10 0 59607  37530.000000  0       3605239.303       3823304.435      -4737193.555
10 0 59607  37560.000000  0       3541414.501       3676487.462      -4898667.973
10 0 59607  37590.000000  0       3473376.206       3526259.350      -5055176.466
10 0 59607  37620.000000  0       3401178.899       3372790.169      -5206561.192
10 0 59607  37650.000000  0       3324881.956       3216252.931      -5352669.524
10 0 59607  37680.000000  0       3244549.593       3056823.396      -5493354.195
10 0 59607  37710.000000  0       3160250.814       2894679.872      -5628473.437
10 0 59607  37740.000000  0       3072059.352       2730003.015      -5757891.117
10 0 59607  37770.000000  0       2980053.598       2562975.632      -5881476.869
10 0 59607  37800.000000  0       2884316.537       2393782.474      -5999106.218
10 0 59607  37830.000000  0       2784935.661       2222610.029      -6110660.695
10 0 59607  37860.000000  0       2682002.896       2049646.323      -6216027.945
10 0 59607  37890.000000  0       2575614.511       1875080.712      -6315101.833
10 0 59607  37920.000000  0       2465871.032       1699103.676      -6407782.542
10 0 59607  37950.000000  0       2352877.145       1521906.620      -6493976.665
10 0 59607  37980.000000  0       2236741.597       1343681.663      -6573597.293
10 0 59607  38010.000000  0       2117577.095       1164621.436      -6646564.091
10 0 59607  38040.000000  0       1995500.196        984918.878      -6712803.379
10 0 59607  38070.000000  0       1870631.202        804767.036      -6772248.198
10 0 59607  38100.000000  0       1743094.035        624358.857      -6824838.376
10 0 59607  38130.000000  0       1613016.125        443886.993      -6870520.590
10 0 59607  38160.000000  0       1480528.275        263543.589      -6909248.419
10 0 59607  38190.000000  0       1345764.535         83520.088      -6940982.384
10 0 59607  38220.000000  0       1208862.065        -95992.973      -6965689.986
10 0 59607  38250.000000  0       1069961.000       -274806.159      -6983345.734
10 0 59607  38280.000000  0        929204.312       -452731.333      -6993931.171
10 0 59607  38310.000000  0        786737.663       -629581.844      -6997434.892
10 0 59607  38340.000000  0        642709.264       -805172.724      -6993852.556
10 0 59607  38370.000000  0        497269.721       -979320.875      -6983186.894
10 0 59607  38400.000000  0        350571.887      -1151845.252      -6965447.708
10 0 59607  38430.000000  0        202770.702      -1322567.049      -6940651.866
10 0 59607  38460.000000  0         54023.039      -1491309.878      -6908823.294
10 0 59607  38490.000000  0        -95512.459      -1657899.950      -6869992.961
10 0 59607  38520.000000  0       -245675.548      -1822166.255      -6824198.858
10 0 59607  38550.000000  0       -396304.551      -1983940.734      -6771485.965
10 0 59607  38580.000000  0       -547236.527      -2143058.454      -6711906.214
10 0 59607  38610.000000  0       -698307.445      -2299357.777      -6645518.446
10 0 59607  38640.000000  0       -849352.357      -2452680.522      -6572388.358
10 0 59607  38670.000000  0      -1000205.576      -2602872.127      -6492588.445
10 0 59607  38700.000000  0      -1150700.850      -2749781.805      -6406197.939
10 0 59607  38730.000000  0      -1300671.546      -2893262.692      -6313302.738
10 0 59607  38760.000000  0      -1449950.828      -3033172.003      -6213995.338
10 0 59607  38790.000000  0      -1598371.841      -3169371.170      -6108374.742
10 0 59607  38820.000000  0      -1745767.897      -3301725.988      -5996546.384
10 0 59607  38850.000000  0      -1891972.659      -3430106.752      -5878622.026
10 0 59607  38880.000000  0      -2036820.326      -3554388.385      -5754719.667
10 0 59607  38910.000000  0      -2180145.825      -3674450.574      -5624963.429
10 0 59607  38940.000000  0      -2321785.002      -3790177.887      -5489483.453
10 0 59607  38970.000000  0      -2461574.806      -3901459.900      -5348415.767
10 0 59607  39000.000000  0      -2599353.486      -4008191.303      -5201902.167
10 0 59607  39030.000000  0      -2734960.774      -4110272.008      -5050090.076
10 0 59607  39060.000000  0      -2868238.079      -4207607.252      -4893132.407
10 0 59607  39090.000000  0      -2999028.667      -4300107.693      -4731187.419
10 0 59607  39120.000000  0      -3127177.855      -4387689.497      -4564418.560
10 0 59607  39150.000000  0      -3252533.194      -4470274.422      -4392994.313
10 0 59607  39180.000000  0      -3374944.652      -4547789.899      -4217088.030
10 0 59607  39210.000000  0      -3494264.796      -4620169.102      -4036877.768
10 0 59607  39240.000000  0      -3610348.980      -4687351.013      -3852546.108
10 0 59607  39270.000000  0      -3723055.518      -4749280.483      -3664279.979
10 0 59607  39300.000000  0      -3832245.866      -4805908.284      -3472270.470
10 0 59607  39330.000000  0      -3937784.795      -4857191.157      -3276712.635
10 0 59607  39360.000000  0      -4039540.564      -4903091.844      -3077805.300
10 0 59607  39390.000000  0      -4137385.085      -4943579.125      -2875750.860
10 0 59607  39420.000000  0      -4231194.095      -4978627.840      -2670755.074
10 0 59607  39450.000000  0      -4320847.309      -5008218.910      -2463026.850
10 0 59607  39480.000000  0      -4406228.588      -5032339.343      -2252778.039
10 0 59607  39510.000000  0      -4487226.083      -5050982.243      -2040223.205
10 0 59607  39540.000000  0      -4563732.390      -5064146.800      -1825579.408
10 0 59607  39570.000000  0      -4635644.693      -5071838.285      -1609065.978
99
